OSCAR 7 (AO-7)          
1 07530U 74089B   26193.68997190 -.00000027  00000+0  12178-3 0  9994
2 07530 101.9904 207.2023 0012659  83.0276  31.2526 12.53698515363710
PHASE 3B (AO-10)        
1 14129U 83058B   26190.70523784  .00000106  00000+0  00000+0 0  9990
2 14129  25.9319 215.8523 6003352 121.8543 310.3469  2.05870648295953
UOSAT 2 (UO-11)         
1 14781U 84021B   26193.86076065  .00000786  00000+0  85406-4 0  9992
2 14781  97.8074 159.1518 0009191  97.8974 262.3288 14.90845722260957
LUSAT (LO-19)           
1 20442U 90005G   26193.29864192  .00000048  00000+0  33720-4 0  9998
2 20442  98.8847 215.7954 0012440 129.3206 230.9083 14.34130209905999
EYESAT A (AO-27)        
1 22825U 93061C   26193.73178369  .00000035  00000+0  30449-4 0  9994
2 22825  98.6869 261.1346 0008901  32.7099 327.4633 14.30948662710658
ITAMSAT (IO-26)         
1 22826U 93061D   26193.77347363  .00000032  00000+0  28856-4 0  9997
2 22826  98.6817 261.0963 0009108  16.3044 343.8430 14.31376267710973
RADIO ROSTO (RS15)      
1 23439U 94085A   26193.56974957 -.00000018  00000+0  69602-3 0  9995
2 23439  64.8160 262.1670 0156811 359.1907   0.8742 11.27583544298761
JAS-2 (FO-29)           
1 24278U 96046B   26193.52226945  .00000020  00000+0  54923-4 0  9992
2 24278  98.5221  38.9215 0350477  30.8650 331.2590 13.53275422476596
TECHSAT 1B (GO-32)      
1 25397U 98043D   26193.56255600  .00000019  00000+0  28421-4 0  9990
2 25397  99.0083 186.9627 0002120 118.5783 241.5609 14.24433030454941
ISS (ZARYA)             
1 25544U 98067A   26193.79871965  .00004831  00000+0  95802-4 0  9996
2 25544  51.6301 173.3406 0006695 288.1916  71.8344 15.48994114575722
PCSAT (NO-44)           
1 26931U 01043C   26193.44327055  .00000039  00000+0  45472-4 0  9997
2 26931  67.0492 178.9472 0005950 266.3908  93.6514 14.31964345294061
SAUDISAT 1C (SO-50)     
1 27607U 02058C   26193.77913648  .00000397  00000+0  64839-4 0  9995
2 27607  64.5517  49.8013 0074600 257.7275 101.5471 14.83095806268255
CUTE-1 (CO-55)          
1 27844U 03031E   26193.81805928  .00000160  00000+0  88191-4 0  9991
2 27844  98.6742 202.0549 0010788 108.7901 251.4449 14.24350634195326
CUBESAT XI-IV (CO-57)   
1 27848U 03031J   26193.53826736  .00000128  00000+0  75348-4 0  9998
2 27848  98.6772 201.4707 0010448 126.3839 233.8305 14.23633637194983
MOZHAETS 4 (RS22)       
1 27939U 03042A   26193.89396664  .00000552  00000+0  93145-4 0  9998
2 27939  98.3474  18.9808 0010999 180.5496 310.1741 14.73511722219330
CUBESAT XI-V            
1 28895U 05043F   26192.38715503  .00000804  00000+0  13420-3 0  9990
2 28895  98.3011 348.5214 0015131 126.3821 233.8784 14.72696464105311
CUTE-1.7+APD II (CO-65) 
1 32785U 08021C   26193.90119955  .00003342  00000+0  21157-3 0  9996
2 32785  97.8287 175.8607 0007239 308.7828  51.2753 15.09687806989075
SEEDS II (CO-66)        
1 32791U 08021J   26193.52388480  .00011335  00000+0  35129-3 0  9997
2 32791  97.7520 192.6480 0002793 162.8059 197.3278 15.33607267991170
YUBILEINY (RS30)        
1 32953U 08025A   26193.85144541  .00000029  00000+0  13585-3 0  9995
2 32953  82.5053 339.4745 0018569 254.4206 105.4824 12.43180761822889
KKS-1 (KISEKI)          
1 33499U 09002H   26193.82574721  .00000699  00000+0  92473-4 0  9998
2 33499  98.1177 116.6742 0007223 197.1599 162.9371 14.83186085939997
SWISSCUBE               
1 35932U 09051B   26193.20904170  .00000502  00000+0  10865-3 0  9990
2 35932  98.4012 101.5313 0007715 127.0520 233.1388 14.62527427892815
BEESAT-1                
1 35933U 09051C   26193.71071439  .00000393  00000+0  88659-4 0  9995
2 35933  98.3939 101.6234 0005984 136.3628 223.8047 14.61759519892911
ITUPSAT1                
1 35935U 09051E   26192.97035851  .00000388  00000+0  90106-4 0  9996
2 35935  98.4023 100.0372 0007861 152.4089 207.7529 14.60475983892353
XIWANG-1 (HOPE-1)       
1 36122U 09072B   26193.85558501 -.00000127  00000+0 -21589-3 0  9999
2 36122 100.4028 147.2787 0007478 170.0237 190.1025 13.16438913796383
O/OREOS (USA 219)       
1 37224U 10062C   26193.64371286  .00001126  00000+0  11184-3 0  9992
2 37224  71.9695  22.6694 0013827  10.1151 350.0295 14.93845582120440
JUGNU                   
1 37839U 11058B   26193.07075447  .00000355  00000+0  45779-4 0  9998
2 37839  19.9591 157.2468 0018467 351.9537  74.6963 14.13782974762554
SRMSAT                  
1 37841U 11058D   26193.23869166  .00000350  00000+0  45879-4 0  9994
2 37841  19.9714 267.8421 0011854 118.8974 271.3920 14.11580711761369
STRAND-1                
1 39090U 13009E   26193.46783720  .00000149  00000+0  64299-4 0  9999
2 39090  98.3932  13.0813 0009262 148.5894 211.5848 14.37177891700690
ZACUBE-1 (TSHEPISOSAT)  
1 39417U 13066B   26193.80190617  .00001290  00000+0  10312-3 0  9994
2 39417  97.8010 156.2656 0043887 162.8946 197.3769 15.01322390684576
GOMX-1                  
1 39430U 13066Q   26193.78811551  .00000865  00000+0  13621-3 0  9996
2 39430  97.6477  32.6355 0128492 355.9571   4.0586 14.69539412673672
